TDRS 3                  
1 19548U 88091B   24362.30575668 -.00000279  00000+0  00000+0 0  9997
2 19548  13.0135 344.5885 0041521 339.3000 193.5736  1.00268531120003
HST                     
1 20580U 90037B   24362.52148517  .00011042  00000+0  46115-3 0  9991
2 20580  28.4673 125.8895 0002333  13.2997 346.7658 15.21997104706738
TDRS 5                  
1 21639U 91054B   24362.37456609 -.00000283  00000+0  00000+0 0  9999
2 21639  14.1369 357.6996 0006369 275.4794 255.6782  1.00267770122330
TDRS 6                  
1 22314U 93003B   24362.47264530 -.00000278  00000+0  00000+0 0  9991
2 22314  14.1688   1.0022 0007995 194.1481  25.5614  1.00269036117026
TDRS 7                  
1 23613U 95035B   24361.82979185 -.00000185  00000+0  00000+0 0  9995
2 23613  13.6008 351.8882 0021345  69.4964  58.0404  1.00274323107868
ISS (ZARYA)             
1 25544U 98067A   24362.55899995  .00025751  00000+0  45249-3 0  9992
2 25544  51.6383  77.2935 0005808  11.8849 348.2276 15.50313476488549
TERRA                   
1 25994U 99068A   24362.63999545  .00001345  00000+0  28744-3 0  9998
2 25994  98.0247  60.2521 0003500 109.4194  51.9490 14.60342137331278
TDRS 8                  
1 26388U 00034A   24362.36630705  .00000112  00000+0  00000+0 0  9993
2 26388  11.8380  35.6890 0007477 228.8336 156.0325  1.00270830 89806
TIMED                   
1 26998U 01055B   24362.54211462  .00003339  00000+0  32495-3 0  9990
2 26998  74.0696 233.8410 0002478 235.0786 125.0165 14.92971447250668
AQUA                    
1 27424U 02022A   24362.58341859  .00002977  00000+0  62241-3 0  9997
2 27424  98.3558 313.0851 0000877 121.0611 325.9285 14.60573489204898
TDRS 10                 
1 27566U 02055A   24362.48338483  .00000106  00000+0  00000+0 0  9991
2 27566   9.9671  43.8334 0005998 283.0960 132.3807  1.00274808 80859
SORCE                   
1 27651U 03004A   24362.54482265  .00008510  00000+0  71173-3 0  9996
2 27651  39.9928  72.3383 0020264 165.8588 194.2775 14.98275356191224
AURA                    
1 28376U 04026A   24362.54007171  .00002904  00000+0  61921-3 0  9996
2 28376  98.2746 306.4006 0001205  90.5786 269.5551 14.59683700 87872
SWIFT                   
1 28485U 04047A   24362.29762231  .00027034  00000+0  91322-3 0  9996
2 28485  20.5545 229.5720 0006843 277.5397  82.4264 15.28745571103665
THEMIS A                
1 30580U 07004A   24361.87433097 -.00000186  00000+0  00000+0 0  9998
2 30580   7.2894 247.9833 8420544 358.5955   0.4582  0.87838377 36550
THEMIS D                
1 30797U 07004D   24362.55639948 -.00000257  00000+0  00000+0 0  9996
2 30797   2.6759 247.9719 8405478   2.9221 205.1839  0.87839004 36352
THEMIS E                
1 30798U 07004E   24362.55700764 -.00000259  00000+0  00000+0 0  9994
2 30798   4.9732 274.0348 8394116 337.7791 218.5504  0.87836394 61191
FGRST (GLAST)           
1 33053U 08029A   24362.56040612  .00007473  00000+0  32751-3 0  9995
2 33053  25.5839 318.7759 0009887 132.5215 227.6158 15.19439717913998
TDRS 11                 
1 39070U 13004A   24362.58230116  .00000105  00000+0  00000+0 0  9994
2 39070   2.8718  18.2591 0001747  18.5169  94.9999  1.00268256 41310
TDRS 12                 
1 39504U 14004A   24362.50223278 -.00000244  00000+0  00000+0 0  9995
2 39504   3.5966   8.0726 0005516 253.8880 334.3909  1.00267982 38890
GPM-CORE                
1 39574U 14009C   24362.57494554  .00027702  00000+0  59524-3 0  9997
2 39574  64.9815 305.4964 0006399 257.2324 102.8101 15.44576993614924
MMS 1                   
1 40482U 15011A   24362.16668981 -.00000702  00000+0  00000+0 0  9996
2 40482  58.2873   0.6782 8919521 155.0002  95.3572  0.28516492  1351
MMS 2                   
1 40483U 15011B   24362.16668981 -.00000702  00000+0  00000+0 0  9997
2 40483  58.2865   0.6792 8919499 154.9997  93.8102  0.28515582  1350
MMS 3                   
1 40484U 15011C   24362.16668981 -.00000702  00000+0  00000+0 0  9998
2 40484  58.2882   0.6776 8919437 155.0004  94.0727  0.28516034  1354
MMS 4                   
1 40485U 15011D   24362.25001157 -.00000708  00000+0  00000+0 0  9991
2 40485  58.2884   0.6788 8918893 154.9997  92.7850  0.28517449  1357
TDRS 13                 
1 42915U 17047A   24362.38464425 -.00000069  00000+0  00000+0 0  9997
2 42915   3.5144 349.0605 0010527 119.6146 114.7779  1.00271939 26961
NOAA 20 (JPSS-1)        
1 43013U 17073A   24362.53920114  .00000264  00000+0  14612-3 0  9999
2 43013  98.7266 297.3666 0001932  55.1074 305.0284 14.19526069368335
